{"type": "FeatureCollection", "features": [ {"type": "Feature", "properties": {"norad_id": 33980, "name": "COSMOS 2251 DEB", "group": "cosmos-2251-debris", "lat": 24.321786539377598, "lon": -152.19321907236412, "alt_km": 678.220035877629, "timestamp": "2025-12-25T09:48:52.682372+00:00", "meta": {"OBJECT_NAME": "COSMOS 2251 DEB", "OBJECT_ID": "1993-036FP", "EPOCH": "2025-12-25T02:39:52.487424", "MEAN_MOTION": 14.58717372, "ECCENTRICITY": 0.0027919, "INCLINATION": 74.0207, "RA_OF_ASC_NODE": 35.8157, "ARG_OF_PERICENTER": 178.7026, "MEAN_ANOMALY": 212.1104, "EPHEMERIS_TYPE": 0, "CLASSIFICATION_TYPE": "U", "NORAD_CAT_ID": 33980, "ELEMENT_SET_NO": 999, "REV_AT_EPOCH": 88975, "BSTAR": 0.00059104, "MEAN_MOTION_DOT": 2.744e-05, "MEAN_MOTION_DDOT": 0}, "tle": {"line1": "1 33980U 93036FP  25359.11102416  .00002744  00000+0  59104-3 0  9992", "line2": "2 33980  74.0207  35.8157 0027919 178.7026 212.1104 14.58717372889756"}}, "geometry": {"type": "Point", "coordinates": [-152.19321907236412, 24.321786539377598]}}, {"type": "Feature", "properties": {"norad_id": 33982, "name": "COSMOS 2251 DEB", "group": "cosmos-2251-debris", "lat": 71.59775016771353, "lon": 34.93527985281478, "alt_km": 661.2609583429121, "timestamp": "2025-12-25T09:48:52.682382+00:00", "meta": {"OBJECT_NAME": "COSMOS 2251 DEB", "OBJECT_ID": "1993-036FR", "EPOCH": "2025-12-24T23:50:20.580000", "MEAN_MOTION": 14.60266747, "ECCENTRICITY": 0.0075514, "INCLINATION": 74.0713, "RA_OF_ASC_NODE": 336.5898, "ARG_OF_PERICENTER": 17.6635, "MEAN_ANOMALY": 38.1055, "EPHEMERIS_TYPE": 0, "CLASSIFICATION_TYPE": "U", "NORAD_CAT_ID": 33982, "ELEMENT_SET_NO": 999, "REV_AT_EPOCH": 89338, "BSTAR": 0.00060606, "MEAN_MOTION_DOT": 3.015e-05, "MEAN_MOTION_DDOT": 0}, "tle": {"line1": "1 33982U 93036FR  25358.99329375  .00003015  00000+0  60606-3 0  9995", "line2": "2 33982  74.0713 336.5898 0075514  17.6635  38.1055 14.60266747893387"}}, "geometry": {"type": "Point", "coordinates": [34.93527985281478, 71.59775016771353]}}, {"type": "Feature", "properties": {"norad_id": 33983, "name": "COSMOS 2251 DEB", "group": "cosmos-2251-debris", "lat": -58.71712441323303, "lon": 95.17236558574896, "alt_km": 725.4667275380616, "timestamp": "2025-12-25T09:48:52.682392+00:00", "meta": {"OBJECT_NAME": "COSMOS 2251 DEB", "OBJECT_ID": "1993-036FS", "EPOCH": "2025-12-25T02:39:29.855808", "MEAN_MOTION": 14.5072127, "ECCENTRICITY": 0.0021119, "INCLINATION": 74.0505, "RA_OF_ASC_NODE": 123.81, "ARG_OF_PERICENTER": 225.6515, "MEAN_ANOMALY": 314.8003, "EPHEMERIS_TYPE": 0, "CLASSIFICATION_TYPE": "U", "NORAD_CAT_ID": 33983, "ELEMENT_SET_NO": 999, "REV_AT_EPOCH": 88808, "BSTAR": 0.00062266, "MEAN_MOTION_DOT": 2.428e-05, "MEAN_MOTION_DDOT": 0}, "tle": {"line1": "1 33983U 93036FS  25359.11076222  .00002428  00000+0  62266-3 0  9992", "line2": "2 33983  74.0505 123.8100 0021119 225.6515 314.8003 14.50721270888084"}}, "geometry": {"type": "Point", "coordinates": [95.17236558574896, -58.71712441323303]}}, {"type": "Feature", "properties": {"norad_id": 33984, "name": "COSMOS 2251 DEB", "group": "cosmos-2251-debris", "lat": 37.219618021095094, "lon": -24.783580557171224, "alt_km": 676.7010173574154, "timestamp": "2025-12-25T09:48:52.682402+00:00", "meta": {"OBJECT_NAME": "COSMOS 2251 DEB", "OBJECT_ID": "1993-036FT", "EPOCH": "2025-12-25T00:05:49.139808", "MEAN_MOTION": 14.66466726, "ECCENTRICITY": 0.0022451, "INCLINATION": 74.0098, "RA_OF_ASC_NODE": 323.4175, "ARG_OF_PERICENTER": 157.7912, "MEAN_ANOMALY": 264.8039, "EPHEMERIS_TYPE": 0, "CLASSIFICATION_TYPE": "U", "NORAD_CAT_ID": 33984, "ELEMENT_SET_NO": 999, "REV_AT_EPOCH": 89246, "BSTAR": 0.00091239, "MEAN_MOTION_DOT": 5.043e-05, "MEAN_MOTION_DDOT": 0}, "tle": {"line1": "1 33984U 93036FT  25359.00404097  .00005043  00000+0  91239-3 0  9994", "line2": "2 33984  74.0098 323.4175 0022451 157.7912 264.8039 14.66466726892467"}}, "geometry": {"type": "Point", "coordinates": [-24.783580557171224, 37.219618021095094]}}, {"type": "Feature", "properties": {"norad_id": 33986, "name": "COSMOS 2251 DEB", "group": "cosmos-2251-debris", "lat": 65.0239595669819, "lon": -42.94335730641856, "alt_km": 736.5577366559719, "timestamp": "2025-12-25T09:48:52.682412+00:00", "meta": {"OBJECT_NAME": "COSMOS 2251 DEB", "OBJECT_ID": "1993-036FV", "EPOCH": "2025-12-24T20:26:35.700576", "MEAN_MOTION": 14.43260292, "ECCENTRICITY": 0.00410855, "INCLINATION": 74.0366, "RA_OF_ASC_NODE": 280.1744, "ARG_OF_PERICENTER": 350.3243, "MEAN_ANOMALY": 66.1991, "EPHEMERIS_TYPE": 0, "CLASSIFICATION_TYPE": "U", "NORAD_CAT_ID": 33986, "ELEMENT_SET_NO": 999, "REV_AT_EPOCH": 88203, "BSTAR": 0.00070852763, "MEAN_MOTION_DOT": 2.383e-05, "MEAN_MOTION_DDOT": 0}, "tle": {"line1": "1 33986U 93036FV  25358.85180209  .00002383  00000+0  70853-3 0  9997", "line2": "2 33986  74.0366 280.1744 0041085 350.3243  66.1991 14.43260292882037"}}, "geometry": {"type": "Point", "coordinates": [-42.94335730641856, 65.0239595669819]}}, {"type": "Feature", "properties": {"norad_id": 33990, "name": "COSMOS 2251 DEB", "group": "cosmos-2251-debris", "lat": -8.117499508847528, "lon": 88.01132625447468, "alt_km": 1091.6563794787298, "timestamp": "2025-12-25T09:48:52.682422+00:00", "meta": {"OBJECT_NAME": "COSMOS 2251 DEB", "OBJECT_ID": "1993-036FZ", "EPOCH": "2025-12-25T00:01:51.786912", "MEAN_MOTION": 13.50014724, "ECCENTRICITY": 0.0407312, "INCLINATION": 73.9283, "RA_OF_ASC_NODE": 266.309, "ARG_OF_PERICENTER": 284.411, "MEAN_ANOMALY": 88.1202, "EPHEMERIS_TYPE": 0, "CLASSIFICATION_TYPE": "U", "NORAD_CAT_ID": 33990, "ELEMENT_SET_NO": 999, "REV_AT_EPOCH": 82895, "BSTAR": 0.00076127, "MEAN_MOTION_DOT": 7.87e-06, "MEAN_MOTION_DDOT": 0}, "tle": {"line1": "1 33990U 93036FZ  25359.00129383  .00000787  00000+0  76127-3 0  9992", "line2": "2 33990  73.9283 266.3090 0407312 284.4110  88.1202 13.50014724828951"}}, "geometry": {"type": "Point", "coordinates": [88.01132625447468, -8.117499508847528]}}, {"type": "Feature", "properties": {"norad_id": 33992, "name": "COSMOS 2251 DEB", "group": "cosmos-2251-debris", "lat": -68.03163105042181, "lon": 178.5463549277024, "alt_km": 716.0504786357387, "timestamp": "2025-12-25T09:48:52.682432+00:00", "meta": {"OBJECT_NAME": "COSMOS 2251 DEB", "OBJECT_ID": "1993-036GB", "EPOCH": "2025-12-25T00:48:09.265248", "MEAN_MOTION": 14.66312233, "ECCENTRICITY": 0.0051899, "INCLINATION": 74.0248, "RA_OF_ASC_NODE": 314.0224, "ARG_OF_PERICENTER": 68.1092, "MEAN_ANOMALY": 5.3058, "EPHEMERIS_TYPE": 0, "CLASSIFICATION_TYPE": "U", "NORAD_CAT_ID": 33992, "ELEMENT_SET_NO": 999, "REV_AT_EPOCH": 89305, "BSTAR": 0.00088436, "MEAN_MOTION_DOT": 4.95e-05, "MEAN_MOTION_DDOT": 0}, "tle": {"line1": "1 33992U 93036GB  25359.03344057  .00004950  00000+0  88436-3 0  9996", "line2": "2 33992  74.0248 314.0224 0051899  68.1092   5.3058 14.66312233893054"}}, "geometry": {"type": "Point", "coordinates": [178.5463549277024, -68.03163105042181]}}, {"type": "Feature", "properties": {"norad_id": 33994, "name": "COSMOS 2251 DEB", "group": "cosmos-2251-debris", "lat": 67.3553576813012, "lon": -56.34296233537849, "alt_km": 764.2480488507172, "timestamp": "2025-12-25T09:48:52.682442+00:00", "meta": {"OBJECT_NAME": "COSMOS 2251 DEB", "OBJECT_ID": "1993-036GD", "EPOCH": "2025-12-24T22:11:28.247136", "MEAN_MOTION": 14.41222043, "ECCENTRICITY": 0.0024013, "INCLINATION": 74.0415, "RA_OF_ASC_NODE": 167.8609, "ARG_OF_PERICENTER": 300.1326, "MEAN_ANOMALY": 174.2657, "EPHEMERIS_TYPE": 0, "CLASSIFICATION_TYPE": "U", "NORAD_CAT_ID": 33994, "ELEMENT_SET_NO": 999, "REV_AT_EPOCH": 88595, "BSTAR": 0.00010035, "MEAN_MOTION_DOT": 2.98e-06, "MEAN_MOTION_DDOT": 0}, "tle": {"line1": "1 33994U 93036GD  25358.92463249  .00000298  00000+0  10035-3 0  9991", "line2": "2 33994  74.0415 167.8609 0024013 300.1326 174.2657 14.41222043885953"}}, "geometry": {"type": "Point", "coordinates": [-56.34296233537849, 67.3553576813012]}}, {"type": "Feature", "properties": {"norad_id": 33995, "name": "COSMOS 2251 DEB", "group": "cosmos-2251-debris", "lat": -64.85098423935784, "lon": -46.330460761403636, "alt_km": 816.4083824829131, "timestamp": "2025-12-25T09:48:52.682452+00:00", "meta": {"OBJECT_NAME": "COSMOS 2251 DEB", "OBJECT_ID": "1993-036GE", "EPOCH": "2025-12-24T17:35:48.265728", "MEAN_MOTION": 14.34828474, "ECCENTRICITY": 0.00593083, "INCLINATION": 74.0615, "RA_OF_ASC_NODE": 97.4102, "ARG_OF_PERICENTER": 108.3943, "MEAN_ANOMALY": 252.3671, "EPHEMERIS_TYPE": 0, "CLASSIFICATION_TYPE": "U", "NORAD_CAT_ID": 33995, "ELEMENT_SET_NO": 999, "REV_AT_EPOCH": 87691, "BSTAR": 0.00082357332, "MEAN_MOTION_DOT": 2.36e-05, "MEAN_MOTION_DDOT": 0}, "tle": {"line1": "1 33995U 93036GE  25358.73319752  .00002360  00000+0  82357-3 0  9998", "line2": "2 33995  74.0615  97.4102 0059308 108.3943 252.3671 14.34828474876912"}}, "geometry": {"type": "Point", "coordinates": [-46.330460761403636, -64.85098423935784]}}, {"type": "Feature", "properties": {"norad_id": 33999, "name": "COSMOS 2251 DEB", "group": "cosmos-2251-debris", "lat": 67.23628310117373, "lon": -17.929665137357016, "alt_km": 580.3804384821033, "timestamp": "2025-12-25T09:48:52.682461+00:00", "meta": {"OBJECT_NAME": "COSMOS 2251 DEB", "OBJECT_ID": "1993-036GJ", "EPOCH": "2025-12-24T23:37:47.292096", "MEAN_MOTION": 14.83593791, "ECCENTRICITY": 0.0044413, "INCLINATION": 73.9174, "RA_OF_ASC_NODE": 206.352, "ARG_OF_PERICENTER": 98.1174, "MEAN_ANOMALY": 262.5045, "EPHEMERIS_TYPE": 0, "CLASSIFICATION_TYPE": "U", "NORAD_CAT_ID": 33999, "ELEMENT_SET_NO": 999, "REV_AT_EPOCH": 89432, "BSTAR": 0.0012821, "MEAN_MOTION_DOT": 0.00010737, "MEAN_MOTION_DDOT": 0}, "tle": {"line1": "1 33999U 93036GJ  25358.98457514  .00010737  00000+0  12821-2 0  9993", "line2": "2 33999  73.9174 206.3520 0044413  98.1174 262.5045 14.83593791894320"}}, "geometry": {"type": "Point", "coordinates": [-17.929665137357016, 67.23628310117373]}}]}